CTC2_L_00660001-01
1 50663U 25654XY  26037.47799769  .00000000  00000+0  00000-0 0  9997
2 50663  60.0000   0.0000 0000000   0.0000   0.0000  3.21836066    14
CTC2_L_00660001-02
1 50664U 24187TP  26037.47799769  .00000000  00000+0  00000-0 0  9998
2 50664  60.0000   0.0000 0000000   0.0000  36.0000  3.21836066    14
CTC2_L_00660001-03
1 50665U 25846TX  26037.47799769  .00000000  00000+0  00000-0 0  9992
2 50665  60.0000   0.0000 0000000   0.0000  72.0000  3.21836066    15
CTC2_L_00660001-04
1 50666U 23722SK  26037.47799769  .00000000  00000+0  00000-0 0  9994
2 50666  60.0000   0.0000 0000000   0.0000 108.0000  3.21836066    16
CTC2_L_00660001-05
1 50667U 25832ID  26037.47799769  .00000000  00000+0  00000-0 0  9999
2 50667  60.0000   0.0000 0000000   0.0000 144.0000  3.21836066    17
CTC2_L_00660001-06
1 50668U 23645KY  26037.47799769  .00000000  00000+0  00000-0 0  9990
2 50668  60.0000   0.0000 0000000   0.0000 180.0000  3.21836066    18
CTC2_L_00660001-07
1 50669U 23561JO  26037.47799769  .00000000  00000+0  00000-0 0  9998
2 50669  60.0000   0.0000 0000000   0.0000 216.0000  3.21836066    19
CTC2_L_00660001-08
1 50670U 26219GK  26037.47799769  .00000000  00000+0  00000-0 0  9993
2 50670  60.0000   0.0000 0000000   0.0000 252.0000  3.21836066    11
CTC2_L_00660001-09
1 50671U 26064P   26037.47799769  .00000000  00000+0  00000-0 0  9992
2 50671  60.0000   0.0000 0000000   0.0000 288.0000  3.21836066    11
CTC2_L_00660001-10
1 50672U 24840KU  26037.47799769  .00000000  00000+0  00000-0 0  9993
2 50672  60.0000   0.0000 0000000   0.0000 324.0000  3.21836066    13
CTC2_L_00660002-01
1 50673U 26969HJ  26037.47799769  .00000000  00000+0  00000-0 0  9998
2 50673  60.0000  30.0000 0000000   0.0000  12.0000  3.21836066    11
CTC2_L_00660002-02
1 50674U 25015GF  26037.47799769  .00000000  00000+0  00000-0 0  9990
2 50674  60.0000  30.0000 0000000   0.0000  48.0000  3.21836066    11
CTC2_L_00660002-03
1 50675U 22545RG  26037.47799769  .00000000  00000+0  00000-0 0  9996
2 50675  60.0000  30.0000 0000000   0.0000  84.0000  3.21836066    12
CTC2_L_00660002-04
1 50676U 24889WZ  26037.47799769  .00000000  00000+0  00000-0 0  9990
2 50676  60.0000  30.0000 0000000   0.0000 120.0000  3.21836066    14
CTC2_L_00660002-05
1 50677U 24359GN  26037.47799769  .00000000  00000+0  00000-0 0  9993
2 50677  60.0000  30.0000 0000000   0.0000 156.0000  3.21836066    14
CTC2_L_00660002-06
1 50678U 22501DE  26037.47799769  .00000000  00000+0  00000-0 0  9991
2 50678  60.0000  30.0000 0000000   0.0000 192.0000  3.21836066    15
CTC2_L_00660002-07
1 50679U 24223ML  26037.47799769  .00000000  00000+0  00000-0 0  9995
2 50679  60.0000  30.0000 0000000   0.0000 228.0000  3.21836066    16
CTC2_L_00660002-08
1 50680U 25141YP  26037.47799769  .00000000  00000+0  00000-0 0  9997
2 50680  60.0000  30.0000 0000000   0.0000 264.0000  3.21836066    18
CTC2_L_00660002-09
1 50681U 24605JA  26037.47799769  .00000000  00000+0  00000-0 0  9992
2 50681  60.0000  30.0000 0000000   0.0000 300.0000  3.21836066    10
CTC2_L_00660002-10
1 50682U 23909FE  26037.47799769  .00000000  00000+0  00000-0 0  9999
2 50682  60.0000  30.0000 0000000   0.0000 336.0000  3.21836066    10
CTC2_L_00660003-01
1 50683U 26181NU  26037.47799769  .00000000  00000+0  00000-0 0  9995
2 50683  60.0000  60.0000 0000000   0.0000  24.0000  3.21836066    18
CTC2_L_00660003-02
1 50684U 23444PR  26037.47799769  .00000000  00000+0  00000-0 0  9995
2 50684  60.0000  60.0000 0000000   0.0000  60.0000  3.21836066    19
CTC2_L_00660003-03
1 50685U 24512PF  26037.47799769  .00000000  00000+0  00000-0 0  9993
2 50685  60.0000  60.0000 0000000   0.0000  96.0000  3.21836066    19
CTC2_L_00660003-04
1 50686U 26709SY  26037.47799769  .00000000  00000+0  00000-0 0  9994
2 50686  60.0000  60.0000 0000000   0.0000 132.0000  3.21836066    11
CTC2_L_00660003-05
1 50687U 23138WE  26037.47799769  .00000000  00000+0  00000-0 0  9998
2 50687  60.0000  60.0000 0000000   0.0000 168.0000  3.21836066    11
CTC2_L_00660003-06
1 50688U 25264AZ  26037.47799769  .00000000  00000+0  00000-0 0  9991
2 50688  60.0000  60.0000 0000000   0.0000 204.0000  3.21836066    13
CTC2_L_00660003-07
1 50689U 24944YB  26037.47799769  .00000000  00000+0  00000-0 0  9996
2 50689  60.0000  60.0000 0000000   0.0000 240.0000  3.21836066    14
CTC2_L_00660003-08
1 50690U 25899YZ  26037.47799769  .00000000  00000+0  00000-0 0  9998
2 50690  60.0000  60.0000 0000000   0.0000 276.0000  3.21836066    15
CTC2_L_00660003-09
1 50691U 22302HE  26037.47799769  .00000000  00000+0  00000-0 0  9995
2 50691  60.0000  60.0000 0000000   0.0000 312.0000  3.21836066    17
CTC2_L_00660003-10
1 50692U 25837BD  26037.47799769  .00000000  00000+0  00000-0 0  9992
2 50692  60.0000  60.0000 0000000   0.0000 348.0000  3.21836066    17
CTC2_L_00660004-01
1 50693U 23329MC  26037.47799769  .00000000  00000+0  00000-0 0  9997
2 50693  60.0000  90.0000 0000000   0.0000  36.0000  3.21836066    15
CTC2_L_00660004-02
1 50694U 25036OM  26037.47799769  .00000000  00000+0  00000-0 0  9995
2 50694  60.0000  90.0000 0000000   0.0000  72.0000  3.21836066    16
CTC2_L_00660004-03
1 50695U 24753XU  26037.47799769  .00000000  00000+0  00000-0 0  9991
2 50695  60.0000  90.0000 0000000   0.0000 108.0000  3.21836066    17
CTC2_L_00660004-04
1 50696U 24336WJ  26037.47799769  .00000000  00000+0  00000-0 0  9999
2 50696  60.0000  90.0000 0000000   0.0000 144.0000  3.21836066    18
CTC2_L_00660004-05
1 50697U 25271CK  26037.47799769  .00000000  00000+0  00000-0 0  9999
2 50697  60.0000  90.0000 0000000   0.0000 180.0000  3.21836066    19
CTC2_L_00660004-06
1 50698U 23897TE  26037.47799769  .00000000  00000+0  00000-0 0  9992
2 50698  60.0000  90.0000 0000000   0.0000 216.0000  3.21836066    10
CTC2_L_00660004-07
1 50699U 26920TB  26037.47799769  .00000000  00000+0  00000-0 0  9993
2 50699  60.0000  90.0000 0000000   0.0000 252.0000  3.21836066    11
CTC2_L_00660004-08
1 50700U 26389NX  26037.47799769  .00000000  00000+0  00000-0 0  9995
2 50700  60.0000  90.0000 0000000   0.0000 288.0000  3.21836066    13
CTC2_L_00660004-09
1 50701U 25089BZ  26037.47799769  .00000000  00000+0  00000-0 0  9992
2 50701  60.0000  90.0000 0000000   0.0000 324.0000  3.21836066    15
CTC2_L_00660004-10
1 50702U 26945X   26037.47799769  .00000000  00000+0  00000-0 0  9995
2 50702  60.0000  90.0000 0000000   0.0000   0.0000  3.21836066    17
CTC2_L_00660005-01
1 50703U 24051WD  26037.47799769  .00000000  00000+0  00000-0 0  9992
2 50703  60.0000 120.0000 0000000   0.0000  48.0000  3.21836066    14
CTC2_L_00660005-02
1 50704U 23041MC  26037.47799769  .00000000  00000+0  00000-0 0  9991
2 50704  60.0000 120.0000 0000000   0.0000  84.0000  3.21836066    15
CTC2_L_00660005-03
1 50705U 23659LW  26037.47799769  .00000000  00000+0  00000-0 0  9997
2 50705  60.0000 120.0000 0000000   0.0000 120.0000  3.21836066    17
CTC2_L_00660005-04
1 50706U 22431VZ  26037.47799769  .00000000  00000+0  00000-0 0  9995
2 50706  60.0000 120.0000 0000000   0.0000 156.0000  3.21836066    17
CTC2_L_00660005-05
1 50707U 23151TL  26037.47799769  .00000000  00000+0  00000-0 0  9996
2 50707  60.0000 120.0000 0000000   0.0000 192.0000  3.21836066    18
CTC2_L_00660005-06
1 50708U 24310ON  26037.47799769  .00000000  00000+0  00000-0 0  9995
2 50708  60.0000 120.0000 0000000   0.0000 228.0000  3.21836066    19
CTC2_L_00660005-07
1 50709U 25706GZ  26037.47799769  .00000000  00000+0  00000-0 0  9996
2 50709  60.0000 120.0000 0000000   0.0000 264.0000  3.21836066    10
CTC2_L_00660005-08
1 50710U 25346YF  26037.47799769  .00000000  00000+0  00000-0 0  9998
2 50710  60.0000 120.0000 0000000   0.0000 300.0000  3.21836066    13
CTC2_L_00660005-09
1 50711U 26251RR  26037.47799769  .00000000  00000+0  00000-0 0  9995
2 50711  60.0000 120.0000 0000000   0.0000 336.0000  3.21836066    13
CTC2_L_00660005-10
1 50712U 24522NG  26037.47799769  .00000000  00000+0  00000-0 0  9995
2 50712  60.0000 120.0000 0000000   0.0000  12.0000  3.21836066    15
CTC2_L_00660006-01
1 50713U 22289NN  26037.47799769  .00000000  00000+0  00000-0 0  9994
2 50713  60.0000 150.0000 0000000   0.0000  60.0000  3.21836066    12
CTC2_L_00660006-02
1 50714U 23886CF  26037.47799769  .00000000  00000+0  00000-0 0  9999
2 50714  60.0000 150.0000 0000000   0.0000  96.0000  3.21836066    12
CTC2_L_00660006-03
1 50715U 24307ST  26037.47799769  .00000000  00000+0  00000-0 0  9999
2 50715  60.0000 150.0000 0000000   0.0000 132.0000  3.21836066    14
CTC2_L_00660006-04
1 50716U 23275IY  26037.47799769  .00000000  00000+0  00000-0 0  9993
2 50716  60.0000 150.0000 0000000   0.0000 168.0000  3.21836066    14
CTC2_L_00660006-05
1 50717U 23583JV  26037.47799769  .00000000  00000+0  00000-0 0  9996
2 50717  60.0000 150.0000 0000000   0.0000 204.0000  3.21836066    16
CTC2_L_00660006-06
1 50718U 25912QC  26037.47799769  .00000000  00000+0  00000-0 0  9995
2 50718  60.0000 150.0000 0000000   0.0000 240.0000  3.21836066    17
CTC2_L_00660006-07
1 50719U 25557KF  26037.47799769  .00000000  00000+0  00000-0 0  9991
2 50719  60.0000 150.0000 0000000   0.0000 276.0000  3.21836066    17
CTC2_L_00660006-08
1 50720U 25962VN  26037.47799769  .00000000  00000+0  00000-0 0  9993
2 50720  60.0000 150.0000 0000000   0.0000 312.0000  3.21836066    10
CTC2_L_00660006-09
1 50721U 26495GZ  26037.47799769  .00000000  00000+0  00000-0 0  9996
2 50721  60.0000 150.0000 0000000   0.0000 348.0000  3.21836066    10
CTC2_L_00660006-10
1 50722U 22135MO  26037.47799769  .00000000  00000+0  00000-0 0  9994
2 50722  60.0000 150.0000 0000000   0.0000  24.0000  3.21836066    12
CTC2_L_00660007-01
1 50723U 22399VR  26037.47799769  .00000000  00000+0  00000-0 0  9997
2 50723  60.0000 180.0000 0000000   0.0000  72.0000  3.21836066    19
CTC2_L_00660007-02
1 50724U 23870PQ  26037.47799769  .00000000  00000+0  00000-0 0  9993
2 50724  60.0000 180.0000 0000000   0.0000 108.0000  3.21836066    10
